{
  "links" : {
    "next" : "https://api.nasa.gov/neo/rest/v1/feed?start_date=2000-10-09&end_date=2000-10-09&detailed=true&api_key=t0TVs3DtDT2H8Oy2Zy8m2eVrNsAVKAexjcZXUckd",
    "prev" : "https://api.nasa.gov/neo/rest/v1/feed?start_date=2000-10-07&end_date=2000-10-07&detailed=true&api_key=t0TVs3DtDT2H8Oy2Zy8m2eVrNsAVKAexjcZXUckd",
    "self" : "https://api.nasa.gov/neo/rest/v1/feed?start_date=2000-10-08&end_date=2000-10-08&detailed=true&api_key=t0TVs3DtDT2H8Oy2Zy8m2eVrNsAVKAexjcZXUckd"
  },
  "element_count" : 7,
  "near_earth_objects" : {
    "2000-10-08" : [ {
      "links" : {
        "self" : "https://api.nasa.gov/neo/rest/v1/neo/3655761?api_key=t0TVs3DtDT2H8Oy2Zy8m2eVrNsAVKAexjcZXUckd"
      },
      "neo_reference_id" : "3655761",
      "name" : "(2014 AE29)",
      "nasa_jpl_url" : "http://ssd.jpl.nasa.gov/sbdb.cgi?sstr=3655761",
      "absolute_magnitude_h" : 27.4,
      "estimated_diameter" : {
        "kilometers" : {
          "estimated_diameter_min" : 0.0088014652,
          "estimated_diameter_max" : 0.0196806745
        },
        "meters" : {
          "estimated_diameter_min" : 8.801465209,
          "estimated_diameter_max" : 19.6806745089
        },
        "miles" : {
          "estimated_diameter_min" : 0.0054689752,
          "estimated_diameter_max" : 0.0122290004
        },
        "feet" : {
          "estimated_diameter_min" : 28.8761991163,
          "estimated_diameter_max" : 64.5691441559
        }
      },
      "is_potentially_hazardous_asteroid" : false,
      "close_approach_data" : [ {
        "close_approach_date" : "2000-10-08",
        "epoch_date_close_approach" : 970988400000,
        "relative_velocity" : {
          "kilometers_per_second" : "5.6907593953",
          "kilometers_per_hour" : "20486.7338231332",
          "miles_per_hour" : "12729.6596913796"
        },
        "miss_distance" : {
          "astronomical" : "0.0977609349",
          "lunar" : "38.0290031433",
          "kilometers" : "14624828",
          "miles" : "9087447"
        },
        "orbiting_body" : "Earth"
      } ],
      "orbital_data" : {
        "orbit_id" : "5",
        "orbit_determination_date" : "2017-04-06 08:42:58",
        "orbit_uncertainty" : "6",
        "minimum_orbit_intersection" : ".0110091",
        "jupiter_tisserand_invariant" : "6.558",
        "epoch_osculation" : "2458000.5",
        "eccentricity" : ".1582910382585499",
        "semi_major_axis" : ".9070830748893509",
        "inclination" : "4.856543021520674",
        "ascending_node_longitude" : "103.1268230186044",
        "orbital_period" : "315.5506086907696",
        "perihelion_distance" : ".7634999531783576",
        "perihelion_argument" : "137.8817635727509",
        "aphelion_distance" : "1.050666196600344",
        "perihelion_time" : "2458032.303167889953",
        "mean_anomaly" : "323.7169438909147",
        "mean_motion" : "1.14086295537078",
        "equinox" : "J2000"
      }
    } ]
  }
}